     3.00           N                   E                   RINEX VERSION / TYPE
BRD_USR             ESA                 20190104 152003  UTCPGM / RUN BY / DATE
 GAL   4.4750E+01 -1.5625E-02 -2.1362E-03  0.0000E+00       IONOSPHERIC CORR
GAUT -9.3132257462E-10 0.000000000E+00 432000 2034 GSTB   0 TIME SYSTEM CORR
GPGA -3.2014213502E-09-1.332267630E-15 518400 2034 GSTB   0 TIME SYSTEM CORR
                                                            END OF HEADER
E05 2019 01 04 12 40 00 1.308674691245E-04-6.579625733139E-12 0.000000000000E+00
     2.800000000000E+01 1.343750000000E+01 3.810515866138E-09-1.609289395329E+00
     6.016343832016E-07 1.536252675578E-04 4.058703780174E-06 5.440602218628E+03
     4.776000000000E+05-1.303851604462E-08 1.365721399778E+00-1.862645149231E-08
     9.521623512124E-01 2.487500000000E+02 1.514318967018E+00-5.767740249533E-09
     1.417916204758E-10 5.210000000000E+02 2.034000000000E+03 0.000000000000E+00
     3.120000000000E+00 0.000000000000E+00-1.629814505577E-09-1.629814505577E-09
     4.788250000000E+05 0.000000000000E+00 0.000000000000E+00 0.000000000000E+00
E07 2019 01 04 11 50 00-1.062621595338E-04-7.077005648171E-12 0.000000000000E+00
     2.300000000000E+01 7.250000000000E+00 3.826587964177E-09-2.946988141405E+00
     2.738088369370E-07 1.491286093369E-04 3.632158041000E-06 5.440604333878E+03
     4.746000000000E+05-6.146728992462E-08 1.365759034809E+00-6.332993507385E-08
     9.521918948430E-01 2.550000000000E+02 1.222018803245E-01-5.845243477853E-09
     1.142904749427E-11 5.210000000000E+02 2.034000000000E+03 0.000000000000E+00
     3.120000000000E+00 0.000000000000E+00 2.328306436539E-10 2.328306436539E-10
     4.788250000000E+05 0.000000000000E+00 0.000000000000E+00 0.000000000000E+00
E08 2019 01 04 12 40 00 6.430072477087E-03-7.517542144342E-12 0.000000000000E+00
     2.800000000000E+01 1.103125000000E+01 3.809801550670E-09-2.178787015979E+00
     5.979090929031E-07 2.350361319259E-04 3.930181264877E-06 5.440606416702E+03
     4.776000000000E+05 7.823109626770E-08 1.357089646220E+00 6.519258022308E-08
     9.581321409981E-01 2.556562500000E+02 5.125917399835E-01-5.861672733626E-09
     1.639353999960E-10 5.210000000000E+02 2.034000000000E+03 0.000000000000E+00
     3.120000000000E+00 0.000000000000E+00-8.381903171539E-09-9.778887033463E-09
     4.788250000000E+05 0.000000000000E+00 0.000000000000E+00 0.000000000000E+00
E09 2019 01 04 11 50 00 6.568340118974E-03-1.138289462688E-11 0.000000000000E+00
     2.300000000000E+01 9.687500000000E+00 3.726226640868E-09 1.580641423146E-01
     4.656612873077E-07 2.568940399215E-04 4.015862941742E-06 5.440602216721E+03
     4.746000000000E+05-3.725290298462E-09 1.357103739972E+00-2.235174179077E-08
     9.581637400286E-01 2.499375000000E+02 1.587522112040E-01-5.723452690492E-09
     1.014327965117E-10 5.210000000000E+02 2.034000000000E+03 0.000000000000E+00
     3.120000000000E+00 0.000000000000E+00-3.259629011154E-09-3.958120942116E-09
     4.788250000000E+05 0.000000000000E+00 0.000000000000E+00 0.000000000000E+00
E11 2019 01 04 11 40 00 5.718961125240E-03 1.151079231931E-12 0.000000000000E+00
     2.200000000000E+01-2.181562500000E+02 2.652967649609E-09 2.693533675255E+00
    -1.005083322525E-05 2.349287969992E-04 5.483627319336E-06 5.440612005234E+03
     4.740000000000E+05 2.607703208923E-08-7.394465781981E-01 1.490116119385E-08
     9.820144658956E-01 2.320625000000E+02-3.555345388121E-01-5.489514374594E-09
    -2.139374827835E-10 5.210000000000E+02 2.034000000000E+03 0.000000000000E+00
     3.120000000000E+00 0.000000000000E+00-1.862645149231E-08-2.025626599789E-08
     4.788250000000E+05 0.000000000000E+00 0.000000000000E+00 0.000000000000E+00
E12 2019 01 04 11 50 00 5.867438565474E-03 8.427036846115E-11 0.000000000000E+00
     2.300000000000E+01-2.229687500000E+02 2.756186234791E-09-2.166775795846E+00
    -1.025758683681E-05 3.666925476864E-04 6.496906280518E-06 5.440608783722E+03
     4.746000000000E+05-5.587935447693E-09-7.394657848495E-01 1.862645149231E-08
     9.820283021748E-01 2.117187500000E+02-9.003529260333E-01-5.498086160215E-09
    -2.235807416067E-10 5.210000000000E+02 2.034000000000E+03 0.000000000000E+00
     3.120000000000E+00 0.000000000000E+00-1.559965312481E-08-1.606531441212E-08
     4.788250000000E+05 0.000000000000E+00 0.000000000000E+00 0.000000000000E+00
E13 2019 01 04 12 40 00 3.813221119344E-04 4.689582056017E-13 0.000000000000E+00
     2.800000000000E+01-1.935000000000E+02 2.621894926733E-09 1.264815669975E+00
    -8.992850780487E-06 3.294419730082E-04 6.131827831268E-06 5.440604524612E+03
     4.776000000000E+05-9.313225746155E-09-7.447700917380E-01-3.725290298462E-09
     9.852548733288E-01 2.204062500000E+02-1.615756928362E+00-5.443441026883E-09
    -2.132231673151E-10 5.210000000000E+02 2.034000000000E+03 0.000000000000E+00
     3.120000000000E+00 4.550000000000E+02-4.423782229424E-09-5.355104804039E-09
     4.788250000000E+05 0.000000000000E+00 0.000000000000E+00 0.000000000000E+00
E14 2019 01 04 11 50 00 6.464914826211E-03-5.627498467220E-12 0.000000000000E+00
     2.300000000000E+01-3.312500000000E+00 2.518319183817E-09 1.301689964063E+00
    -4.382804036140E-06 1.663752031745E-01-8.409842848778E-06 5.289405200958E+03
     4.746000000000E+05 2.510845661163E-06-1.339573143513E+00 3.520399332047E-07
     8.825839982747E-01 5.127187500000E+02 1.451919158947E+00-4.601620247382E-09
    -8.221771041194E-10 5.210000000000E+02 2.034000000000E+03 0.000000000000E+00
     3.120000000000E+00 4.550000000000E+02 3.306195139885E-08 3.702007234097E-08
     4.788250000000E+05 0.000000000000E+00 0.000000000000E+00 0.000000000000E+00
E15 2019 01 04 12 40 00 9.238869533874E-04-1.023181539495E-12 0.000000000000E+00
     2.800000000000E+01-1.851562500000E+02 2.624037873139E-09 2.125309080065E+00
    -8.676201105118E-06 3.785323351622E-04 5.707144737244E-06 5.440607179642E+03
     4.776000000000E+05-1.117587089539E-08-7.447812391738E-01-3.725290298462E-09
     9.852127456768E-01 2.324687500000E+02-1.694060265164E+00-5.454512916643E-09
    -2.085801167705E-10 5.210000000000E+02 2.034000000000E+03 0.000000000000E+00
     3.120000000000E+00 4.550000000000E+02 1.396983861923E-09 1.396983861923E-09
     4.788250000000E+05 0.000000000000E+00 0.000000000000E+00 0.000000000000E+00
E18 2019 01 04 12 40 00 5.631582229398E-03-2.852118541341E-11 0.000000000000E+00
     2.800000000000E+01-5.881250000000E+01 2.397599869658E-09-1.465266447532E+00
    -1.449137926102E-06 1.664228786249E-01 2.194195985794E-06 5.289344873428E+03
     4.776000000000E+05 6.509944796562E-06-1.322391989906E+00 2.877786755562E-06
     8.817944526098E-01 2.689687500000E+02 1.436399505771E+00-2.576178736756E-09
    -5.875244727526E-10 5.210000000000E+02 2.034000000000E+03 0.000000000000E+00
     3.120000000000E+00 4.550000000000E+02 1.420266926289E-08 1.606531441212E-08
     4.788250000000E+05 0.000000000000E+00 0.000000000000E+00 0.000000000000E+00
E19 2019 01 04 12 40 00-9.378418326378E-06 2.700062395888E-13 0.000000000000E+00
     2.800000000000E+01 9.625000000000E+00 3.764085360693E-09 1.362306985554E-01
     4.433095455170E-07 1.412320416421E-04 3.997236490250E-06 5.440600734711E+03
     4.776000000000E+05-1.676380634308E-08 1.362444666626E+00 1.676380634308E-08
     9.579207785940E-01 2.525312500000E+02 2.202661701518E+00-5.716666693543E-09
     1.064330047904E-10 5.210000000000E+02 2.034000000000E+03 0.000000000000E+00
     3.120000000000E+00 0.000000000000E+00-8.847564458847E-09-9.080395102501E-09
     4.788250000000E+05 0.000000000000E+00 0.000000000000E+00 0.000000000000E+00
E21 2019 01 04 12 20 00-5.127491313033E-04-1.904254531837E-12 0.000000000000E+00
     2.600000000000E+01 1.918437500000E+02 2.334740108440E-09 1.239321379053E+00
     8.961185812950E-06 4.840712063015E-05 8.502975106239E-06 5.440632909775E+03
     4.764000000000E+05-4.284083843231E-08-2.827783982108E+00 9.313225746155E-08
     9.899162613686E-01 1.726875000000E+02-4.151904582348E-01-5.156643366323E-09
     1.217907873609E-10 5.210000000000E+02 2.034000000000E+03 0.000000000000E+00
     3.120000000000E+00 0.000000000000E+00-2.561137080193E-09-3.259629011154E-09
     4.788250000000E+05 0.000000000000E+00 0.000000000000E+00 0.000000000000E+00
E24 2019 01 04 12 40 00 6.303470872808E-03-1.975308805413E-11 0.000000000000E+00
     2.800000000000E+01 2.036875000000E+02 2.371170197328E-09-1.847640364609E+00
     9.467825293541E-06 4.611171316355E-04 9.858980774879E-06 5.440625152588E+03
     4.776000000000E+05 4.842877388000E-08-2.821708345810E+00-8.568167686462E-08
     9.879185414012E-01 1.423750000000E+02 4.431630245474E-01-5.238432487454E-09
     4.857345185067E-11 5.210000000000E+02 2.034000000000E+03 0.000000000000E+00
     3.120000000000E+00 0.000000000000E+00 4.284083843231E-08 4.819594323635E-08
     4.788250000000E+05 0.000000000000E+00 0.000000000000E+00 0.000000000000E+00
E25 2019 01 04 11 50 00 1.933951920364E-03-1.135447291745E-11 0.000000000000E+00
     2.300000000000E+01 1.838125000000E+02 2.337954528048E-09-1.168529083527E+00
     8.622184395790E-06 2.190389204770E-04 9.890645742416E-06 5.440633705139E+03
     4.746000000000E+05-1.862645149231E-09-2.827783487641E+00 5.029141902924E-08
     9.899210231669E-01 1.422812500000E+02-1.370546514684E+00-5.200930925363E-09
     1.467918287546E-10 5.210000000000E+02 2.034000000000E+03 0.000000000000E+00
     3.120000000000E+00 0.000000000000E+00-1.164153218269E-09-1.396983861923E-09
     4.788250000000E+05 0.000000000000E+00 0.000000000000E+00 0.000000000000E+00
